NORAD_CAT_ID,OBJECT_NAME,OBJECT_TYPE,EPOCH,MEAN_MOTION,ECCENTRICITY,INCLINATION,RA_OF_ASC_NODE,ARG_OF_PERICENTER,MEAN_ANOMALY,BSTAR,MEAN_MOTION_DOT,MEAN_MOTION_DDOT,TLE_LINE0,TLE_LINE1,TLE_LINE2,SEMIMAJOR_AXIS,PERIOD,APOGEE,PERIGEE,DECAYED
55939.0,STARLINK-5918,PAYLOAD,2023-10-19 03:42:52,14.98336244,0.0002754,69.9998,324.3969,269.2148,90.8695,-2.5723e-05,-4e-06,0.0,0 STARLINK-5918,1 55939U 23037AB  23292.15477086 -.00000400  00000-0 -25723-4 0  9991,2 55939  69.9998 324.3969 0002754 269.2148  90.8695 14.98336244 33624,6950.174,96.107,573.953,570.125,0.0
55939.0,STARLINK-5918,PAYLOAD,2023-10-19 11:43:32,14.9833899,0.0002741,69.9997,323.5552,269.3714,90.7131,1.2406e-05,5.5e-07,0.0,0 STARLINK-5918,1 55939U 23037AB  23292.48856654  .00000055  00000-0  12406-4 0  9997,2 55939  69.9997 323.5552 0002741 269.3714  90.7131 14.98338990 33330,6950.165,96.106,573.935,570.125,0.0
55939.0,STARLINK-5918,PAYLOAD,2023-10-19 19:44:13,14.98323853,0.0002468,69.9998,322.7136,270.5741,89.5135,6.1442e-05,6.4e-06,0.0,0 STARLINK-5918,1 55939U 23037AB  23292.82237508  .00000640  00000-0  61442-4 0  9990,2 55939  69.9998 322.7136 0002468 270.5741  89.5135 14.98323853 33725,6950.212,96.107,573.792,570.362,0.0
55939.0,STARLINK-5918,PAYLOAD,2023-10-20 11:45:33,14.98326832,0.0002711,69.9995,321.0304,269.6566,90.4283,-1.0412e-05,-2.17e-06,0.0,0 STARLINK-5918,1 55939U 23037AB  23293.48997468 -.00000217  00000-0 -10412-4 0  9994,2 55939  69.9995 321.0304 0002711 269.6566  90.4283 14.98326832 33484,6950.203,96.107,573.952,570.183,0.0
55939.0,STARLINK-5918,PAYLOAD,2023-10-21 02:10:46,14.98335092,0.0002655,69.9994,319.5141,269.0716,91.0139,-0.00010456,-1.34e-05,0.0,0 STARLINK-5918,1 55939U 23037AB  23294.09081238 -.00001340  00000-0 -10456-3 0  9996,2 55939  69.9994 319.5141 0002655 269.0716  91.0139 14.98335092 33915,6950.177,96.107,573.887,570.197,0.0
55939.0,STARLINK-5918,PAYLOAD,2023-10-21 11:47:34,14.98332813,0.0002604,69.9991,318.5039,262.1262,97.9601,1.5718e-06,-7.4e-07,0.0,0 STARLINK-5918,1 55939U 23037AB  23294.49137056 -.00000074  00000-0  15718-5 0  9990,2 55939  69.9991 318.5039 0002604 262.1262  97.9601 14.98332813 33637,6950.184,96.107,573.859,570.239,0.0
55939.0,STARLINK-5918,PAYLOAD,2023-10-22 03:48:56,14.98278919,0.0002226,69.999,316.8203,261.8211,98.2695,0.00090686,0.00010729,0.0,0 STARLINK-5918,1 55939U 23037AB  23295.15898293  .00010729  00000-0  90686-3 0  9993,2 55939  69.9990 316.8203 0002226 261.8211  98.2695 14.98278919 34072,6950.351,96.11,573.763,570.669,0.0
55939.0,STARLINK-5918,PAYLOAD,2023-10-22 11:49:35,14.98329967,0.0002682,69.9993,315.9791,267.4799,92.6053,6.9171e-05,7.32e-06,0.0,0 STARLINK-5918,1 55939U 23037AB  23295.49276972  .00000732  00000-0  69171-4 0  9993,2 55939  69.9993 315.9791 0002682 267.4799  92.6053 14.98329967 34128,6950.193,96.107,573.922,570.194,0.0
55939.0,STARLINK-5918,PAYLOAD,2023-10-22 18:14:07,14.98327919,0.0002657,69.9995,315.3057,272.453,87.6325,2.9953e-06,-5.7e-07,0.0,0 STARLINK-5918,1 55939U 23037AB  23295.75981338 -.00000057  00000-0  29953-5 0  9997,2 55939  69.9995 315.3057 0002657 272.4530  87.6325 14.98327919 33827,6950.199,96.107,573.911,570.218,0.0
55939.0,STARLINK-5918,PAYLOAD,2023-10-23 11:51:36,14.98358663,0.0002186,69.9994,313.4544,253.211,106.8809,-0.0005557,-6.722e-05,0.0,0 STARLINK-5918,1 55939U 23037AB  23296.49416728 -.00006722  00000-0 -55570-3 0  9993,2 55939  69.9994 313.4544 0002186 253.2110 106.8809 14.98358663 34275,6950.104,96.105,573.489,570.45,0.0
55939.0,STARLINK-5918,PAYLOAD,2023-10-23 18:16:08,14.98337792,0.000294,69.9993,312.7809,269.7791,90.3031,-0.00017269,-2.153e-05,0.0,0 STARLINK-5918,1 55939U 23037AB  23296.76121169 -.00002153  00000-0 -17269-3 0  9992,2 55939  69.9993 312.7809 0002940 269.7791  90.3031 14.98337792 34314,6950.169,96.106,574.077,569.99,0.0
55939.0,STARLINK-5918,PAYLOAD,2023-10-24 10:17:35,14.98250417,0.0002374,69.9994,311.097,262.6068,97.4821,-0.00088525,-0.00010617,0.0,0 STARLINK-5918,1 55939U 23037AB  23297.42888127 -.00010617  00000-0 -88525-3 0  9997,2 55939  69.9994 311.0970 0002374 262.6068  97.4821 14.98250417 34410,6950.439,96.112,573.954,570.654,0.0
55939.0,STARLINK-5918,PAYLOAD,2023-10-25 10:19:30,14.98330196,0.0002743,69.999,308.5715,271.8715,88.213,6.119e-05,6.37e-06,0.0,0 STARLINK-5918,1 55939U 23037AB  23298.43020933  .00000637  00000-0  61190-4 0  9991,2 55939  69.9990 308.5715 0002743 271.8715  88.2130 14.98330196 34565,6950.192,96.107,573.964,570.151,0.0
55939.0,STARLINK-5918,PAYLOAD,2023-10-26 10:21:31,14.98332852,0.0002755,69.9993,306.0458,267.5331,92.5513,-3.6901e-05,-5.33e-06,0.0,0 STARLINK-5918,1 55939U 23037AB  23299.43160907 -.00000533  00000-0 -36901-4 0  9997,2 55939  69.9993 306.0458 0002755 267.5331  92.5513 14.98332852 34715,6950.184,96.107,573.964,570.134,0.0
55939.0,STARLINK-5918,PAYLOAD,2023-10-27 10:23:31,14.98331107,0.0002988,69.999,303.5219,271.1866,88.8951,4.0751e-05,3.93e-06,0.0,0 STARLINK-5918,1 55939U 23037AB  23300.43300692  .00000393  00000-0  40751-4 0  9997,2 55939  69.9990 303.5219 0002988 271.1866  88.8951 14.98331107 34863,6950.189,96.107,574.131,569.978,0.0
55939.0,STARLINK-5918,PAYLOAD,2023-10-28 10:25:33,14.98326875,0.0002774,69.999,300.9969,269.9248,90.1593,5.5882e-06,-2.6e-07,0.0,0 STARLINK-5918,1 55939U 23037AB  23301.43441083 -.00000026  00000-0  55882-5 0  9994,2 55939  69.9990 300.9969 0002774 269.9248  90.1593 14.98326875 35010,6950.203,96.107,573.996,570.14,0.0
55939.0,STARLINK-5918,PAYLOAD,2023-10-28 16:50:05,14.98326069,0.0002842,69.9989,300.324,274.7393,85.3442,4.7669e-05,4.76e-06,0.0,0 STARLINK-5918,1 55939U 23037AB  23301.70145130  .00000476  00000-0  47669-4 0  9999,2 55939  69.9989 300.3240 0002842 274.7393  85.3442 14.98326069 34715,6950.205,96.107,574.045,570.095,0.0
55939.0,STARLINK-5918,PAYLOAD,2023-10-29 08:51:25,14.98335201,0.0002845,69.9987,298.6402,271.4249,88.6584,6.6514e-05,7.01e-06,0.0,0 STARLINK-5918,1 55939U 23037AB  23302.36904358  .00000701  00000-0  66514-4 0  9998,2 55939  69.9987 298.6402 0002845 271.4249  88.6584 14.98335201 35159,6950.177,96.107,574.019,570.064,0.0
55939.0,STARLINK-5918,PAYLOAD,2023-10-29 16:52:05,14.98359912,0.0002505,70.0001,297.7987,276.6127,83.4747,-0.00050256,-6.089e-05,0.0,0 STARLINK-5918,1 55939U 23037AB  23302.70284065 -.00006089  00000-0 -50256-3 0  9994,2 55939  70.0001 297.7987 0002505 276.6127  83.4747 14.98359912 35207,6950.1,96.105,573.706,570.224,0.0
55939.0,STARLINK-5918,PAYLOAD,2023-10-30 04:05:02,14.98322033,0.0002782,69.9993,296.6204,271.425,88.659,-9.749e-06,-2.09e-06,0.0,0 STARLINK-5918,1 55939U 23037AB  23303.17017266 -.00000209  00000-0 -97490-5 0  9994,2 55939  69.9993 296.6204 0002782 271.4250  88.6590 14.98322033 35275,6950.218,96.108,574.016,570.149,0.0
55939.0,STARLINK-5918,PAYLOAD,2023-10-30 16:54:07,14.98339115,0.0002571,69.9998,295.2726,277.3476,82.739,-0.00027158,-3.333e-05,0.0,0 STARLINK-5918,1 55939U 23037AB  23303.70424976 -.00003333  00000-0 -27158-3 0  9996,2 55939  69.9998 295.2726 0002571 277.3476  82.7390 14.98339115 35356,6950.165,96.106,573.817,570.243,0.0
55939.0,STARLINK-5918,PAYLOAD,2023-10-31 08:55:22,14.98403244,0.0002518,70.0003,293.59,278.6346,81.4528,0.00084752,0.00010053,0.0,0 STARLINK-5918,1 55939U 23037AB  23304.37178663  .00010053  00000-0  84752-3 0  9997,2 55939  70.0003 293.5900 0002518 278.6346  81.4528 14.98403244 35457,6949.966,96.102,573.581,570.081,0.0
55939.0,STARLINK-5918,PAYLOAD,2023-10-31 16:56:08,14.98329126,0.0002731,70.0011,292.7478,272.1568,87.9278,-2.0891e-06,-1.18e-06,0.0,0 STARLINK-5918,1 55939U 23037AB  23304.70565021 -.00000118  00000-0 -20891-5 0  9991,2 55939  70.0011 292.7478 0002731 272.1568  87.9278 14.98329126 35504,6950.196,96.107,573.959,570.162,0.0
55939.0,STARLINK-5918,PAYLOAD,2023-11-01 05:45:11,14.98339088,0.0002586,70.0004,291.4013,264.9963,95.0901,0.00014097,1.59e-05,0.0,0 STARLINK-5918,1 55939U 23037AB  23305.23972004  .00001590  00000-0  14097-3 0  9995,2 55939  70.0004 291.4013 0002586 264.9963  95.0901 14.98339088 35582,6950.165,96.106,573.827,570.232,0.0
55939.0,STARLINK-5918,PAYLOAD,2023-11-01 08:57:28,14.98330461,0.0002812,70.0,291.0643,267.4379,92.6458,4.0503e-05,3.9e-06,0.0,0 STARLINK-5918,1 55939U 23037AB  23305.37324760  .00000390  00000-0  40503-4 0  9999,2 55939  70.0000 291.0643 0002812 267.4379  92.6458 14.98330461 35603,6950.191,96.107,574.011,570.102,0.0
55939.0,STARLINK-5918,PAYLOAD,2023-11-01 16:58:09,14.98309198,0.0002648,70.0005,290.2228,291.1508,68.9368,0.00044327,5.197e-05,0.0,0 STARLINK-5918,1 55939U 23037AB  23305.70705458  .00005197  00000-0  44327-3 0  9990,2 55939  70.0005 290.2228 0002648 291.1508  68.9368 14.98309198 35657,6950.257,96.108,573.963,570.282,0.0
55939.0,STARLINK-5918,PAYLOAD,2023-11-02 05:47:12,14.98338377,0.000255,70.0002,288.8764,269.4214,90.6652,0.00013091,1.47e-05,0.0,0 STARLINK-5918,1 55939U 23037AB  23306.24112047  .00001470  00000-0  13091-3 0  9990,2 55939  70.0002 288.8764 0002550 269.4214  90.6652 14.98338377 35734,6950.167,96.106,573.804,570.26,0.0
55939.0,STARLINK-5918,PAYLOAD,2023-11-02 08:59:29,14.98329328,0.000283,69.9999,288.5399,271.3224,88.7611,3.2806e-05,2.98e-06,0.0,0 STARLINK-5918,1 55939U 23037AB  23306.37464830  .00000298  00000-0  32806-4 0  9997,2 55939  69.9999 288.5399 0002830 271.3224  88.7611 14.98329328 35752,6950.195,96.107,574.027,570.093,0.0
55939.0,STARLINK-5918,PAYLOAD,2023-11-03 09:01:29,14.9833638,0.0002692,69.9992,286.015,264.2903,95.795,4.904e-05,4.92e-06,0.0,0 STARLINK-5918,1 55939U 23037AB  23307.37604145  .00000492  00000-0  49040-4 0  9997,2 55939  69.9992 286.0150 0002692 264.2903  95.7950 14.98336380 35901,6950.173,96.107,573.909,570.167,0.0
55939.0,STARLINK-5918,PAYLOAD,2023-11-03 15:26:02,14.98362455,0.0002606,70.0011,285.3419,273.1425,86.9436,-0.00060005,-7.251e-05,0.0,0 STARLINK-5918,1 55939U 23037AB  23307.64307934 -.00007251  00000-0 -60005-3 0  9998,2 55939  70.0011 285.3419 0002606 273.1425  86.9436 14.98362455 35946,6950.093,96.105,573.769,570.146,0.0
